format  = 'OEF2.0'       ! file format
rectype = 'ML'           ! record type (1L/ML)
refsys  = ECLM J2000     ! default reference system
END_OF_HEADER
2022AP7
! Keplerian elements: a, e, i, long. node, arg. peric., mean anomaly
 KEP   2.9226675985368429E+00  7.1521608336685760E-01  13.8421809945213 192.3383452451671 113.5865273567259  2.6275988528690999E+02
 MJD     61000.000000000 TDT
 MAG  17.461  0.150
! Non-gravitational parameters: model used, number of model parameters, dimension
 LSP   0  0    6
! PERIHELION   8.3232872572810279E-01
! APHELION   5.0130064713455837E+00
! ANODE   9.9896811196799784E-01
! DNODE   1.0977368030550363E-01
! MOID   4.6474508627671739E-02
! PERIOD   1.8250197312701528E+03
! PHA T
! VINFTY    17.3054539733618
! U_PAR 1.4
! ORB_TYPE Apollo
! RMS    4.02067E-07   5.04684E-07   3.19306E-05   2.24233E-04   2.10111E-04   6.30493E-05
 COV   1.616582088700372E-13 -2.516132914608485E-14  2.585775168309135E-12
 COV   9.259663058686829E-12 -2.039342169219507E-11 -2.150356053205017E-11
 COV   2.547063666436778E-13 -1.231920642076339E-12 -3.975810973039505E-11
 COV   8.715352685905986E-13  1.963318842391416E-11  1.019560460185197E-09
 COV   5.548702115504562E-09 -5.435492736734070E-09 -3.900032618935450E-10
 COV   5.028031988281095E-08 -4.327267619816405E-08 -3.704491138402752E-09
 COV   4.414644019415423E-08  2.441745641325993E-09  3.975208784161028E-09
 COR   1.000000000000000E+00 -1.239980333864893E-01  2.014120208285942E-01
 COR   1.027063478891705E-01 -2.414033950209738E-01 -8.482649505749008E-01
 COR   1.000000000000000E+00 -7.644627698110600E-02 -3.513231852848225E-01
 COR   8.218966710305083E-03  6.170082379774089E-01  1.000000000000000E+00
 COR   7.749718041480839E-01 -8.101857171866634E-01 -1.937232629199416E-01
 COR   1.000000000000000E+00 -9.184740578866449E-01 -2.620291285752601E-01
 COR   1.000000000000000E+00  1.843200606850151E-01  9.999999999999998E-01
